[
    {
        "Altitude(m)": 717864.5596710418,
        "Argument of Periapsis(deg)": 0.010251109067964361,
        "Eccentricity": 0.0,
        "Inclination(deg)": 45.0,
        "Latitude(deg)": -45.11164285330362,
        "Longitude(deg)": 37.422035669151626,
        "Mean Anomaly(deg)": -87.80190501726729,
        "RAAN(deg)": 224.99032325268763,
        "Satellite Name": "Constellation 1 1006",
        "Satellite Number": 1006,
        "Semi-Major Axis(m)": 7083131.272910544,
        "Time(s)": 171
    },
    {
        "Altitude(m)": 717863.5800334269,
        "Argument of Periapsis(deg)": 0.010311057074209765,
        "Eccentricity": 0.0,
        "Inclination(deg)": 45.0,
        "Latitude(deg)": -45.10928029697271,
        "Longitude(deg)": 37.503434307252896,
        "Mean Anomaly(deg)": -87.74120387701733,
        "RAAN(deg)": 224.99026666352205,
        "Satellite Name": "Constellation 1 1006",
        "Satellite Number": 1006,
        "Semi-Major Axis(m)": 7083131.272910544,
        "Time(s)": 172
    },
    {
        "Altitude(m)": 717862.5740572314,
        "Argument of Periapsis(deg)": 0.010371005080455171,
        "Eccentricity": 0.0,
        "Inclination(deg)": 45.0,
        "Latitude(deg)": -45.10685375258048,
        "Longitude(deg)": 37.58482581084941,
        "Mean Anomaly(deg)": -87.68050273676747,
        "RAAN(deg)": 224.9902100743565,
        "Satellite Name": "Constellation 1 1006",
        "Satellite Number": 1006,
        "Semi-Major Axis(m)": 7083131.272910544,
        "Time(s)": 173
    },
    {
        "Altitude(m)": 717861.5417461512,
        "Argument of Periapsis(deg)": 0.010430953086700577,
        "Eccentricity": 0.0,
        "Inclination(deg)": 45.0,
        "Latitude(deg)": -45.10436323083391,
        "Longitude(deg)": 37.66620999054514,
        "Mean Anomaly(deg)": -87.6198015965175,
        "RAAN(deg)": 224.99015348519094,
        "Satellite Name": "Constellation 1 1006",
        "Satellite Number": 1006,
        "Semi-Major Axis(m)": 7083131.272910544,
        "Time(s)": 174
    },
    {
        "Altitude(m)": 717860.4831039831,
        "Argument of Periapsis(deg)": 0.010490901092945983,
        "Eccentricity": 0.0,
        "Inclination(deg)": 45.0,
        "Latitude(deg)": -45.10180874272006,
        "Longitude(deg)": 37.747586657073924,
        "Mean Anomaly(deg)": -87.55910045626764,
        "RAAN(deg)": 224.99009689602534,
        "Satellite Name": "Constellation 1 1006",
        "Satellite Number": 1006,
        "Semi-Major Axis(m)": 7083131.272910544,
        "Time(s)": 175
    },
    {
        "Altitude(m)": 717859.3981346136,
        "Argument of Periapsis(deg)": 0.010550849099191389,
        "Eccentricity": 0.0,
        "Inclination(deg)": 45.0,
        "Latitude(deg)": -45.09919029950561,
        "Longitude(deg)": 37.828955621303685,
        "Mean Anomaly(deg)": -87.49839931601768,
        "RAAN(deg)": 224.99004030685978,
        "Satellite Name": "Constellation 1 1006",
        "Satellite Number": 1006,
        "Semi-Major Axis(m)": 7083131.272910544,
        "Time(s)": 176
    },
    {
        "Altitude(m)": 717858.2868420336,
        "Argument of Periapsis(deg)": 0.010610797105436795,
        "Eccentricity": 0.0,
        "Inclination(deg)": 45.0,
        "Latitude(deg)": -45.09650791273675,
        "Longitude(deg)": 37.910316694238944,
        "Mean Anomaly(deg)": -87.43769817576785,
        "RAAN(deg)": 224.9899837176942,
        "Satellite Name": "Constellation 1 1006",
        "Satellite Number": 1006,
        "Semi-Major Axis(m)": 7083131.272910544,
        "Time(s)": 177
    },
    {
        "Altitude(m)": 717857.1492303263,
        "Argument of Periapsis(deg)": 0.0106707451116822,
        "Eccentricity": 0.0,
        "Inclination(deg)": 45.0,
        "Latitude(deg)": -45.093761594239204,
        "Longitude(deg)": 37.991669518928184,
        "Mean Anomaly(deg)": -87.37699703551796,
        "RAAN(deg)": 224.98992712852865,
        "Satellite Name": "Constellation 1 1006",
        "Satellite Number": 1006,
        "Semi-Major Axis(m)": 7083131.272910544,
        "Time(s)": 178
    },
    {
        "Altitude(m)": 717855.9853036769,
        "Argument of Periapsis(deg)": 0.010730693117927606,
        "Eccentricity": 0.0,
        "Inclination(deg)": 45.0,
        "Latitude(deg)": -45.090951356116875,
        "Longitude(deg)": 38.07301424285391,
        "Mean Anomaly(deg)": -87.31629589526813,
        "RAAN(deg)": 224.9898705393631,
        "Satellite Name": "Constellation 1 1006",
        "Satellite Number": 1006,
        "Semi-Major Axis(m)": 7083131.272910544,
        "Time(s)": 179
    },
    {
        "Altitude(m)": 717854.7950663612,
        "Argument of Periapsis(deg)": 0.01079064112417301,
        "Eccentricity": 0.0,
        "Inclination(deg)": 45.0,
        "Latitude(deg)": -45.08807721075315,
        "Longitude(deg)": 38.15435050935503,
        "Mean Anomaly(deg)": -87.25559475501814,
        "RAAN(deg)": 224.9898139501975,
        "Satellite Name": "Constellation 1 1006",
        "Satellite Number": 1006,
        "Semi-Major Axis(m)": 7083131.272910544,
        "Time(s)": 180
    },
    {
        "Altitude(m)": 717853.5785227587,
        "Argument of Periapsis(deg)": 0.010850589130418416,
        "Eccentricity": 0.0,
        "Inclination(deg)": 45.0,
        "Latitude(deg)": -45.0851391708097,
        "Longitude(deg)": 38.2356781300173,
        "Mean Anomaly(deg)": -87.1948936147683,
        "RAAN(deg)": 224.98975736103193,
        "Satellite Name": "Constellation 1 1006",
        "Satellite Number": 1006,
        "Semi-Major Axis(m)": 7083131.272910544,
        "Time(s)": 181
    },
    {
        "Altitude(m)": 717852.335677344,
        "Argument of Periapsis(deg)": 0.01091053713666382,
        "Eccentricity": 0.0,
        "Inclination(deg)": 45.0,
        "Latitude(deg)": -45.08213724922632,
        "Longitude(deg)": 38.31699691658055,
        "Mean Anomaly(deg)": -87.13419247451834,
        "RAAN(deg)": 224.98970077186635,
        "Satellite Name": "Constellation 1 1006",
        "Satellite Number": 1006,
        "Semi-Major Axis(m)": 7083131.272910544,
        "Time(s)": 182
    },
    {
        "Altitude(m)": 717851.0665346849,
        "Argument of Periapsis(deg)": 0.010970485142909228,
        "Eccentricity": 0.0,
        "Inclination(deg)": 45.0,
        "Latitude(deg)": -45.0790714592208,
        "Longitude(deg)": 38.39830668094085,
        "Mean Anomaly(deg)": -87.07349133426845,
        "RAAN(deg)": 224.9896441827008,
        "Satellite Name": "Constellation 1 1006",
        "Satellite Number": 1006,
        "Semi-Major Axis(m)": 7083131.272910544,
        "Time(s)": 183
    },
    {
        "Altitude(m)": 717849.7710994522,
        "Argument of Periapsis(deg)": 0.011030433149154634,
        "Eccentricity": 0.0,
        "Inclination(deg)": 45.0,
        "Latitude(deg)": -45.075941814288576,
        "Longitude(deg)": 38.4796072351548,
        "Mean Anomaly(deg)": -87.01279019401852,
        "RAAN(deg)": 224.9895875935352,
        "Satellite Name": "Constellation 1 1006",
        "Satellite Number": 1006,
        "Semi-Major Axis(m)": 7083131.272910544,
        "Time(s)": 184
    },
    {
        "Altitude(m)": 717848.4493764148,
        "Argument of Periapsis(deg)": 0.01109038115540004,
        "Eccentricity": 0.0,
        "Inclination(deg)": 45.0,
        "Latitude(deg)": -45.07274832820272,
        "Longitude(deg)": 38.560898223345106,
        "Mean Anomaly(deg)": -86.95208905376866,
        "RAAN(deg)": 224.98953100436964,
        "Satellite Name": "Constellation 1 1006",
        "Satellite Number": 1006,
        "Semi-Major Axis(m)": 7083131.272910544,
        "Time(s)": 185
    },
    {
        "Altitude(m)": 717847.1013704232,
        "Argument of Periapsis(deg)": 0.011150329161645444,
        "Eccentricity": 0.0,
        "Inclination(deg)": 45.0,
        "Latitude(deg)": -45.06949101501256,
        "Longitude(deg)": 38.64217979409214,
        "Mean Anomaly(deg)": -86.8913879135188,
        "RAAN(deg)": 224.98947441520406,
        "Satellite Name": "Constellation 1 1006",
        "Satellite Number": 1006,
        "Semi-Major Axis(m)": 7083131.272910544,
        "Time(s)": 186
    },
    {
        "Altitude(m)": 717845.7270864501,
        "Argument of Periapsis(deg)": 0.01121027716789085,
        "Eccentricity": 0.0,
        "Inclination(deg)": 45.0,
        "Latitude(deg)": -45.06616988904503,
        "Longitude(deg)": 38.72345159185529,
        "Mean Anomaly(deg)": -86.83068677326894,
        "RAAN(deg)": 224.9894178260385,
        "Satellite Name": "Constellation 1 1006",
        "Satellite Number": 1006,
        "Semi-Major Axis(m)": 7083131.272910544,
        "Time(s)": 187
    },
    {
        "Altitude(m)": 717844.326529543,
        "Argument of Periapsis(deg)": 0.011270225174136258,
        "Eccentricity": 0.0,
        "Inclination(deg)": 45.0,
        "Latitude(deg)": -45.06278496490327,
        "Longitude(deg)": 38.80471342936424,
        "Mean Anomaly(deg)": -86.76998563301896,
        "RAAN(deg)": 224.98936123687295,
        "Satellite Name": "Constellation 1 1006",
        "Satellite Number": 1006,
        "Semi-Major Axis(m)": 7083131.272910544,
        "Time(s)": 188
    },
    {
        "Altitude(m)": 717842.8997048598,
        "Argument of Periapsis(deg)": 0.011330173180381662,
        "Eccentricity": 0.0,
        "Inclination(deg)": 45.0,
        "Latitude(deg)": -45.05933625746666,
        "Longitude(deg)": 38.88596511952451,
        "Mean Anomaly(deg)": -86.709284492769,
        "RAAN(deg)": 224.98930464770734,
        "Satellite Name": "Constellation 1 1006",
        "Satellite Number": 1006,
        "Semi-Major Axis(m)": 7083131.272910544,
        "Time(s)": 189
    }
]